start=new Date('2022-03-19T00:00:00.000Z').valueOf();
sats=[{"RCS_SIZE":"LARGE","ELEMENT_SET_NO":"999","NORAD_CAT_ID":"48357","COUNTRY_CODE":"US","ARG_OF_PERICENTER":"62.4346","RA_OF_ASC_NODE":"38.8817","CLASSIFICATION_TYPE":"U","OBJECT_NAME":"STARLINK-2636","SITE":"AFETR","BSTAR":"0.00017242000000","MEAN_ELEMENT_THEORY":"SGP4","REV_AT_EPOCH":"4821","OBJECT_TYPE":"PAYLOAD","GP_ID":"199103488","FILE":"3364757","SEMIMAJOR_AXIS":"6925.349","PERIOD":"95.592","PERIAPSIS":"546.136","INCLINATION":"53.0567","OBJECT_ID":"2021-038E","TLE_LINE2":"2 48357  53.0567  38.8817 0001557  62.4346 297.6801 15.06399895 48216","MEAN_MOTION":"15.06399895","TIME_SYSTEM":"UTC","APOAPSIS":"548.292","REF_FRAME":"TEME","EPOCH":"2022-03-18T22:00:40.065696","ECCENTRICITY":"0.00015570","EPHEMERIS_TYPE":"0","LAUNCH_DATE":"2021-05-04","MEAN_MOTION_DOT":"0.00002288","CENTER_NAME":"EARTH","MEAN_ANOMALY":"297.6801","TLE_LINE1":"1 48357U 21038E   22077.91713039  .00002288  00000-0  17242-3 0  9991","MEAN_MOTION_DDOT":"0.0000000000000","DECAY_DATE":null},{"SEMIMAJOR_AXIS":"6925.337","FILE":"3364342","GP_ID":"199045491","OBJECT_TYPE":"PAYLOAD","MEAN_ELEMENT_THEORY":"SGP4","REV_AT_EPOCH":"4811","MEAN_MOTION":"15.06403622","TLE_LINE2":"2 48358  53.0562  41.5634 0001426  68.1087 292.0054 15.06403622 48112","INCLINATION":"53.0562","PERIAPSIS":"546.215","OBJECT_ID":"2021-038F","PERIOD":"95.592","NORAD_CAT_ID":"48358","ELEMENT_SET_NO":"999","RCS_SIZE":"LARGE","BSTAR":"0.00042182000000","SITE":"AFETR","OBJECT_NAME":"STARLINK-2624","CLASSIFICATION_TYPE":"U","RA_OF_ASC_NODE":"41.5634","ARG_OF_PERICENTER":"68.1087","COUNTRY_CODE":"US","MEAN_MOTION_DDOT":"0.0000000000000","MEAN_ANOMALY":"292.0054","TLE_LINE1":"1 48358U 21038F   22077.31630288  .00006008  00000-0  42182-3 0  9995","DECAY_DATE":null,"LAUNCH_DATE":"2021-05-04","EPHEMERIS_TYPE":"0","ECCENTRICITY":"0.00014260","EPOCH":"2022-03-18T07:35:28.568832","REF_FRAME":"TEME","APOAPSIS":"548.190","TIME_SYSTEM":"UTC","CENTER_NAME":"EARTH","MEAN_MOTION_DOT":"0.00006008"},{"MEAN_ANOMALY":"292.9625","TLE_LINE1":"1 48359U 21038G   22077.31264262  .00010608  00000-0  72987-3 0  9998","MEAN_MOTION_DDOT":"0.0000000000000","DECAY_DATE":null,"EPHEMERIS_TYPE":"0","EPOCH":"2022-03-18T07:30:12.322368","ECCENTRICITY":"0.00019060","LAUNCH_DATE":"2021-05-04","TIME_SYSTEM":"UTC","APOAPSIS":"548.519","REF_FRAME":"TEME","CENTER_NAME":"EARTH","MEAN_MOTION_DOT":"0.00010608","SEMIMAJOR_AXIS":"6925.334","MEAN_ELEMENT_THEORY":"SGP4","REV_AT_EPOCH":"4811","GP_ID":"199043752","FILE":"3364342","OBJECT_TYPE":"PAYLOAD","TLE_LINE2":"2 48359  53.0573  41.6009 0001906  67.1565 292.9625 15.06404750 48111","INCLINATION":"53.0573","PERIAPSIS":"545.879","OBJECT_ID":"2021-038G","MEAN_MOTION":"15.06404750","PERIOD":"95.592","NORAD_CAT_ID":"48359","ELEMENT_SET_NO":"999","RCS_SIZE":"LARGE","SITE":"AFETR","BSTAR":"0.00072987000000","COUNTRY_CODE":"US","CLASSIFICATION_TYPE":"U","OBJECT_NAME":"STARLINK-2628","RA_OF_ASC_NODE":"41.6009","ARG_OF_PERICENTER":"67.1565"},{"DECAY_DATE":null,"MEAN_MOTION_DDOT":"0.0000000000000","MEAN_ANOMALY":"300.7198","TLE_LINE1":"1 48360U 21038H   22077.17626821  .00010336  00000-0  71173-3 0  9991","CENTER_NAME":"EARTH","MEAN_MOTION_DOT":"0.00010336","LAUNCH_DATE":"2021-05-04","ECCENTRICITY":"0.00017510","EPOCH":"2022-03-18T04:13:49.573344","EPHEMERIS_TYPE":"0","APOAPSIS":"548.421","REF_FRAME":"TEME","TIME_SYSTEM":"UTC","MEAN_MOTION":"15.06401833","INCLINATION":"53.0552","PERIAPSIS":"545.995","OBJECT_ID":"2021-038H","TLE_LINE2":"2 48360  53.0552  42.2138 0001751  59.3963 300.7198 15.06401833 48092","PERIOD":"95.592","SEMIMAJOR_AXIS":"6925.343","OBJECT_TYPE":"PAYLOAD","FILE":"3364342","GP_ID":"199044501","REV_AT_EPOCH":"4809","MEAN_ELEMENT_THEORY":"SGP4","BSTAR":"0.00071173000000","SITE":"AFETR","ARG_OF_PERICENTER":"59.3963","OBJECT_NAME":"STARLINK-2622","CLASSIFICATION_TYPE":"U","RA_OF_ASC_NODE":"42.2138","COUNTRY_CODE":"US","ELEMENT_SET_NO":"999","NORAD_CAT_ID":"48360","RCS_SIZE":"LARGE"},{"SITE":"AFETR","BSTAR":"0.00016350000000","COUNTRY_CODE":"US","ARG_OF_PERICENTER":"55.2473","CLASSIFICATION_TYPE":"U","RA_OF_ASC_NODE":"38.9375","OBJECT_NAME":"STARLINK-2591","NORAD_CAT_ID":"48361","ELEMENT_SET_NO":"999","RCS_SIZE":"LARGE","PERIAPSIS":"546.129","OBJECT_ID":"2021-038J","INCLINATION":"53.0548","TLE_LINE2":"2 48361  53.0548  38.9375 0001560  55.2473 304.8663 15.06401225 48202","MEAN_MOTION":"15.06401225","PERIOD":"95.592","SEMIMAJOR_AXIS":"6925.345","REV_AT_EPOCH":"4820","MEAN_ELEMENT_THEORY":"SGP4","OBJECT_TYPE":"PAYLOAD","FILE":"3364757","GP_ID":"199102989","CENTER_NAME":"EARTH","MEAN_MOTION_DOT":"0.00002155","EPOCH":"2022-03-18T21:39:26.422560","ECCENTRICITY":"0.00015600","EPHEMERIS_TYPE":"0","LAUNCH_DATE":"2021-05-04","TIME_SYSTEM":"UTC","REF_FRAME":"TEME","APOAPSIS":"548.290","DECAY_DATE":null,"MEAN_ANOMALY":"304.8663","TLE_LINE1":"1 48361U 21038J   22077.90238915  .00002155  00000-0  16350-3 0  9992","MEAN_MOTION_DDOT":"0.0000000000000"},{"BSTAR":"0.00022912000000","SITE":"AFETR","CLASSIFICATION_TYPE":"U","OBJECT_NAME":"STARLINK-2578","RA_OF_ASC_NODE":"38.8428","ARG_OF_PERICENTER":"51.8710","COUNTRY_CODE":"US","ELEMENT_SET_NO":"999","NORAD_CAT_ID":"48362","RCS_SIZE":"LARGE","MEAN_MOTION":"15.06401258","TLE_LINE2":"2 48362  53.0561  38.8428 0001923  51.8710 308.2452 15.06401258 48216","PERIAPSIS":"545.878","INCLINATION":"53.0561","OBJECT_ID":"2021-038K","PERIOD":"95.592","SEMIMAJOR_AXIS":"6925.345","FILE":"3364757","GP_ID":"199104239","OBJECT_TYPE":"PAYLOAD","REV_AT_EPOCH":"4821","MEAN_ELEMENT_THEORY":"SGP4","CENTER_NAME":"EARTH","MEAN_MOTION_DOT":"0.00003133","LAUNCH_DATE":"2021-05-04","EPHEMERIS_TYPE":"0","ECCENTRICITY":"0.00019230","EPOCH":"2022-03-18T22:15:13.955904","APOAPSIS":"548.541","REF_FRAME":"TEME","TIME_SYSTEM":"UTC","DECAY_DATE":null,"MEAN_MOTION_DDOT":"0.0000000000000","TLE_LINE1":"1 48362U 21038K   22077.92724486  .00003133  00000-0  22912-3 0  9996","MEAN_ANOMALY":"308.2452"},{"CENTER_NAME":"EARTH","MEAN_MOTION_DOT":"0.00003186","LAUNCH_DATE":"2021-05-04","EPOCH":"2022-03-18T21:05:35.752992","ECCENTRICITY":"0.00016200","EPHEMERIS_TYPE":"0","REF_FRAME":"TEME","APOAPSIS":"548.315","TIME_SYSTEM":"UTC","DECAY_DATE":null,"MEAN_MOTION_DDOT":"0.0000000000000","MEAN_ANOMALY":"292.0716","TLE_LINE1":"1 48363U 21038L   22077.87888603  .00003186  00000-0  23267-3 0  9995","BSTAR":"0.00023267000000","SITE":"AFETR","ARG_OF_PERICENTER":"68.0445","CLASSIFICATION_TYPE":"U","RA_OF_ASC_NODE":"34.0465","OBJECT_NAME":"STARLINK-2626","COUNTRY_CODE":"US","NORAD_CAT_ID":"48363","ELEMENT_SET_NO":"999","RCS_SIZE":"LARGE","MEAN_MOTION":"15.06406694","PERIAPSIS":"546.071","OBJECT_ID":"2021-038L","INCLINATION":"53.0566","TLE_LINE2":"2 48363  53.0566  34.0465 0001620  68.0445 292.0716 15.06406694 48278","PERIOD":"95.592","SEMIMAJOR_AXIS":"6925.328","OBJECT_TYPE":"PAYLOAD","FILE":"3364757","GP_ID":"199103978","REV_AT_EPOCH":"4827","MEAN_ELEMENT_THEORY":"SGP4"},{"PERIOD":"95.593","PERIAPSIS":"545.989","OBJECT_ID":"2021-038M","INCLINATION":"53.0576","TLE_LINE2":"2 48364  53.0576  34.0764 0001835  58.2223 301.8944 15.06384862 48864","MEAN_MOTION":"15.06384862","REV_AT_EPOCH":"4886","MEAN_ELEMENT_THEORY":"SGP4","OBJECT_TYPE":"PAYLOAD","GP_ID":"199077709","FILE":"3364552","SEMIMAJOR_AXIS":"6925.395","COUNTRY_CODE":"US","ARG_OF_PERICENTER":"58.2223","OBJECT_NAME":"STARLINK-2611","CLASSIFICATION_TYPE":"U","RA_OF_ASC_NODE":"34.0764","SITE":"AFETR","BSTAR":"0.00007346400000","RCS_SIZE":"LARGE","NORAD_CAT_ID":"48364","ELEMENT_SET_NO":"999","DECAY_DATE":null,"TLE_LINE1":"1 48364U 21038M   22077.87425520  .00000812  00000-0  73464-4 0  9999","MEAN_ANOMALY":"301.8944","MEAN_MOTION_DDOT":"0.0000000000000","MEAN_MOTION_DOT":"0.00000812","CENTER_NAME":"EARTH","TIME_SYSTEM":"UTC","REF_FRAME":"TEME","APOAPSIS":"548.531","ECCENTRICITY":"0.00018350","EPOCH":"2022-03-18T20:58:55.649280","EPHEMERIS_TYPE":"0","LAUNCH_DATE":"2021-05-04"},{"DECAY_DATE":null,"MEAN_ANOMALY":"300.0403","TLE_LINE1":"1 48365U 21038N   22077.38867117  .00005095  00000-0  36075-3 0  9992","MEAN_MOTION_DDOT":"0.0000000000000","CENTER_NAME":"EARTH","MEAN_MOTION_DOT":"0.00005095","ECCENTRICITY":"0.00015580","EPOCH":"2022-03-18T09:19:41.189088","EPHEMERIS_TYPE":"0","LAUNCH_DATE":"2021-05-04","TIME_SYSTEM":"UTC","APOAPSIS":"548.306","REF_FRAME":"TEME","PERIAPSIS":"546.148","INCLINATION":"53.0558","OBJECT_ID":"2021-038N","TLE_LINE2":"2 48365  53.0558  36.2632 0001558  60.0741 300.0403 15.06395633 48208","MEAN_MOTION":"15.06395633","PERIOD":"95.592","SEMIMAJOR_AXIS":"6925.362","REV_AT_EPOCH":"4820","MEAN_ELEMENT_THEORY":"SGP4","OBJECT_TYPE":"PAYLOAD","GP_ID":"199044753","FILE":"3364342","SITE":"AFETR","BSTAR":"0.00036075000000","COUNTRY_CODE":"US","ARG_OF_PERICENTER":"60.0741","OBJECT_NAME":"STARLINK-2608","CLASSIFICATION_TYPE":"U","RA_OF_ASC_NODE":"36.2632","NORAD_CAT_ID":"48365","ELEMENT_SET_NO":"999","RCS_SIZE":"LARGE"},{"MEAN_MOTION_DOT":"0.00004166","CENTER_NAME":"EARTH","TIME_SYSTEM":"UTC","APOAPSIS":"548.271","REF_FRAME":"TEME","EPOCH":"2022-03-18T05:50:40.349184","ECCENTRICITY":"0.00014950","EPHEMERIS_TYPE":"0","LAUNCH_DATE":"2021-05-04","DECAY_DATE":null,"MEAN_ANOMALY":"301.6293","TLE_LINE1":"1 48366U 21038P   22077.24352256  .00004166  00000-0  29843-3 0  9994","MEAN_MOTION_DDOT":"0.0000000000000","COUNTRY_CODE":"US","ARG_OF_PERICENTER":"58.4842","CLASSIFICATION_TYPE":"U","RA_OF_ASC_NODE":"31.8996","OBJECT_NAME":"STARLINK-2631","SITE":"AFETR","BSTAR":"0.00029843000000","RCS_SIZE":"LARGE","ELEMENT_SET_NO":"999","NORAD_CAT_ID":"48366","PERIOD":"95.593","PERIAPSIS":"546.200","OBJECT_ID":"2021-038P","INCLINATION":"53.0572","TLE_LINE2":"2 48366  53.0572  31.8996 0001495  58.4842 301.6293 15.06392931 48248","MEAN_MOTION":"15.06392931","REV_AT_EPOCH":"4824","MEAN_ELEMENT_THEORY":"SGP4","OBJECT_TYPE":"PAYLOAD","GP_ID":"199045492","FILE":"3364342","SEMIMAJOR_AXIS":"6925.370"}];
